BEESAT-4                
1 41619U 16040W   22344.54122113  .00023828  00000+0  65482-3 0  9996
2 41619  97.1924  30.8596 0007411 191.9823 168.1247 15.37185691347719
CAS-2T & KS-1Q          
1 41847U 16066G   22344.22344780  .00000849  00000+0  13558-3 0  9993
2 41847  98.5308  48.5452 0363318  44.0311 318.9211 14.38944321319629
NAYIF-1 (EO-88)         
1 42017U 17008BX  22343.16681980  .00033068  00000+0  77658-3 0  9998
2 42017  97.2477  47.2843 0003576 358.8421   1.2817 15.41952028323927
ZHUHAI-1 02 (CAS-4B)    
1 42759U 17034B   22344.35917993  .00005208  00000+0  29825-3 0  9996
2 42759  43.0163  82.1314 0011356 319.1966  89.2941 15.13442791302999
ZHUHAI-1 01 (CAS-4A)    
1 42761U 17034D   22344.32873363  .00005896  00000+0  33503-3 0  9999
2 42761  43.0169  80.9614 0011534 321.4216 141.1972 15.13539761302995
MAX VALIER SAT          
1 42778U 17036P   22344.04192000  .00013086  00000+0  44625-3 0  9997
2 42778  97.1834  19.2478 0011647  65.4299 294.8155 15.30412606303724
RADFXSAT (FOX-1B)       
1 43017U 17073E   22344.58951780  .00006979  00000+0  51506-3 0  9991
2 43017  97.6531 231.5024 0243210 330.7316  28.0451 14.82866297273207
FOX-1D (AO-92)          
1 43137U 18004AC  22344.15786489  .00016102  00000+0  49774-3 0  9997
2 43137  97.3528  58.0061 0008452  97.1651 263.0553 15.33559046273234
DIWATA-2B               
1 43678U 18084H   22344.45761530  .00000764  00000+0  80051-4 0  9999
2 43678  97.9943 120.1005 0011088  67.6337 292.6097 14.92532030224103
ES'HAIL 2               
1 43700U 18090A   22344.49741490  .00000160  00000+0  00000+0 0  9990
2 43700   0.0143  47.4721 0001724 240.9112 355.6949  1.00274134 14796
FOX-1CLIFF (AO-95)      
1 43770U 18099N   22343.86671891  .00004051  00000+0  35236-3 0  9999
2 43770  97.6015  45.5613 0015291  52.6418 307.6195 14.97416447219256
ITASAT 1                
1 43786U 18099AE  22344.38412246  .00003093  00000+0  27020-3 0  9998
2 43786  97.6030  47.0680 0015247  43.1725 317.0690 14.97426242219370
JY1SAT (JO-97)          
1 43803U 18099AX  22344.13219520  .00004603  00000+0  39221-3 0  9995
2 43803  97.6003  46.6493 0015526  44.2355 316.0106 14.98153572219362
UWE-4                   
1 43880U 18111E   22344.26871533  .00004141  00000+0  34326-3 0  9995
2 43880  97.6562 247.4920 0012331  92.9825 267.2809 14.99310332216034
NEXUS (FO-99)           
1 43937U 19003F   22344.55310739  .00019640  00000+0  56170-3 0  9998
2 43937  97.1117  11.4150 0016273 239.2662 120.6980 15.35870178216959
PSAT2 (NO-104)          
1 44354U 19036R   22344.21397559  .00140989 -12481-5  66365-3 0  9997
2 44354  28.5212  18.6986 0139957 186.5791 173.2974 15.68442875192006
JAISAT-1                
1 44419U 19038F   22344.48195592  .00013074  00000+0  59463-3 0  9995
2 44419  97.6577 316.6101 0015723 240.1384 119.8289 15.20753524189777
DUCHIFAT-3              
1 44854U 19089C   22344.44970778  .00004794  00000+0  35953-3 0  9994
2 44854  36.9640 135.9812 0006803 224.0203 167.7807 15.02521710164409
CAS-6 (TIANQIN 1)       
1 44881U 19093C   22344.41454175  .00000715  00000+0  96757-4 0  9993
2 44881  97.8810  60.9951 0014543 338.8857  21.1767 14.81962394160838
RS-44 & BREEZE-KM R/B   
1 44909U 19096E   22344.41296911  .00000014  00000+0  20103-4 0  9993
2 44909  82.5203 113.3868 0216440 268.2770  89.3531 12.79716969138016
ORBITAL FACTORY 2 (OF-2)
1 45113U 19071C   22344.17452805  .00063892  00000+0  80267-3 0  9992
2 45113  51.6341 267.8466 0011559 105.5041 254.7229 15.59009414160648
HUSKYSAT-1 (HO-107)     
1 45119U 19071J   22343.08423828  .00049658  00000+0  70578-3 0  9998
2 45119  51.6351 275.5302 0011297  96.0464 264.1815 15.55817872160436
BY70-2                  
1 45857U 20042B   22344.43720821  .00009648  00000+0  12076-2 0  9993
2 45857  97.9446  59.7753 0008862 260.8861  99.1438 14.82448335131507
SALSAT                  
1 46495U 20068K   22344.43103747  .00003007  00000+0  21318-3 0  9995
2 46495  97.7505 286.0382 0017789  45.7895 314.4789 15.05440346120654
BY70-3                  
1 46839U 20079N   22344.44848471  .00054113  00000+0  86208-3 0  9993
2 46839  97.1807  55.1433 0004614  60.7352 354.0509 15.53078073117445
RADFXSAT-2 (AO-109)     
1 47311U 21002C   22344.56704338  .00012287  00000+0  43484-3 0  9997
2 47311  60.6850  57.7573 0038562  80.8774 279.6676 15.28863525105357
UVSQ-SAT                
1 47438U 21006AB  22342.71673314  .00011147  00000+0  54918-3 0  9993
2 47438  97.4152  38.1739 0012074  36.2449 323.9600 15.18059181103690
DIY-1 (ARDUIQUBE)       
1 47963U 21022AH  22344.59720226  .00032275  00000+0  14572-2 0  9993
2 47963  97.5176 244.4963 0011584 243.9995 116.0048 15.20853929 93644
XW-3 (CAS-9)            
1 50466U 21131B   22344.56415197  .00000338  00000+0  12488-3 0  9991
2 50466  98.5687  61.6242 0004066 357.6771   2.4397 14.38590484 50230
TEVEL-3                 
1 50988U 22002E   22344.44104345  .00011113  00000+0  56095-3 0  9990
2 50988  97.4629  48.5823 0009172 165.8893 250.7133 15.17240673 50077
TEVEL-8                 
1 50989U 22002F   22344.45240833  .00010942  00000+0  55322-3 0  9996
2 50989  97.4639  48.6288 0009540 164.0113 252.8406 15.17183257 50070
TEVEL-5                 
1 50998U 22002Q   22344.40384465  .00011180  00000+0  55528-3 0  9994
2 50998  97.4619  48.7508 0010980 161.2277 258.7158 15.17790181 50084
TEVEL-6                 
1 50999U 22002R   22344.40286269  .00011242  00000+0  55817-3 0  9998
2 50999  97.4619  48.7478 0011081 161.5266 258.1512 15.17797054 50089
TEVEL-1                 
1 51013U 22002AF  22344.44669074  .00011019  00000+0  55670-3 0  9998
2 51013  97.4620  48.5531 0009022 165.8419 252.4794 15.17210256 50078
TEVEL-7                 
1 51062U 22002CG  22344.40240281  .00010899  00000+0  55116-3 0  9993
2 51062  97.4635  48.5610 0009263 164.1645 328.5246 15.17180948 50066
TEVEL-4                 
1 51063U 22002CH  22344.40419212  .00010786  00000+0  54574-3 0  9998
2 51063  97.4634  48.5549 0009331 163.8369 328.8165 15.17162173 50065
TEVEL-2                 
1 51069U 22002CP  22344.44262910  .00011142  00000+0  56249-3 0  9997
2 51069  97.4627  48.5626 0009094 164.4719 251.1341 15.17236146 50078
GREENCUBE               
1 53106U 22080B   22340.05508001 -.00000003  00000+0  00000+0 0  9999
2 53106  70.1754  26.8219 0009008 228.0435 131.9458  6.42557522  9345
YUZGU 9 (RS3S)          
1 53308U 98067TT  22344.52898031  .00140538  00000+0  11046-2 0  9994
2 53308  51.6331 174.8575 0007655 195.2824 164.7943 15.70511054 22187
YUZGU 7 (RS1S)          
1 53309U 98067TU  22344.56841152  .00149172  00000+0  11321-2 0  9990
2 53309  51.6325 174.3631 0008133 199.0434 161.0261 15.71312387 22148
YUZGU 11 (RS5S)         
1 53310U 98067TV  22344.52778947  .00145019  00000+0  11378-2 0  9997
2 53310  51.6332 174.8485 0007896 197.0490 163.0243 15.70535249 22162
YUZGU 12 (RS6S)         
1 53311U 98067TW  22343.97084089  .00133839  00000+0  99097-3 0  9995
2 53311  51.6320 177.1201 0008001 192.0780 168.0028 15.71953458 22105
TSIOLKOVSKY-RYAZAN 1 (*)
1 53312U 98067TX  22344.57263947  .00146704  00000+0  11299-2 0  9997
2 53312  51.6333 174.3990 0008253 199.2163 160.8525 15.70968577 22139
TSIOLKOVSKY-RYAZAN 2 (*)
1 53313U 98067TY  22344.56742861  .00146530  00000+0  11221-2 0  9996
2 53313  51.6333 174.3655 0007808 200.6164 159.4520 15.71110595 22185
YUZGU 10 (RS4S)         
1 53321U 98067TZ  22344.39071270  .00137575  00000+0  10656-2 0  9995
2 53321  51.6333 175.4333 0007834 196.0445 164.0305 15.70870188 22158
RS29S (SXC3-2110 CYCLO*)
1 53373U 22096D   22344.42720291  .00015663  00000+0  58507-3 0  9990
2 53373  97.4289 245.1221 0003300  82.2970  31.2631 15.27451081 18776
RS32S (SXC3-212 MONITO*)
1 53374U 22096E   22344.42040642  .00014226  00000+0  53115-3 0  9990
2 53374  97.4278 245.1275 0003413  80.4142  40.2196 15.27488656 18774
RS34S (SXC3-218 KUZBAS*)
1 53375U 22096F   22344.50010709  .00012990  00000+0  49135-3 0  9994
2 53375  97.4284 245.1769 0003279  80.5829  40.7732 15.27078604 18783
RS23S (SXC3-21 UTMN)    
1 53376U 22096G   22344.36902652  .00013308  00000+0  50219-3 0  9995
2 53376  97.4285 245.0564 0003397  81.6064  58.3630 15.27152281 18765
RS28S (SXC3-214 MIET-A*)
1 53377U 22096H   22344.36920478  .00012158  00000+0  46017-3 0  9995
2 53377  97.4288 245.0596 0003420  82.2312  60.4858 15.27075421 18760
RS26S (KAI-1)           
1 53378U 22096J   22344.43495196  .00011194  00000+0  42660-3 0  9997
2 53378  97.4288 245.1088 0003445  72.8521  38.3578 15.26868474 18773
RS19S (SXC3-219 ISOI)   
1 53381U 22096M   22344.45226691  .00012748  00000+0  47470-3 0  9995
2 53381  97.4290 245.2265 0005516  32.2805  54.6036 15.27594861 18782
RS21S (CUBESX-HSE-2)    
1 53383U 22096P   22344.32759591  .00013209  00000+0  49086-3 0  9991
2 53383  97.4291 245.1120 0005661  33.5543 106.6981 15.27652550 18763
RS30S (SXC3-217 SIREN)  
1 53384U 22096Q   22344.70851394  .00011486  00000+0  42954-3 0  9990
2 53384  97.4291 245.4821 0005703  31.1341  21.4525 15.27479561 18826
RS20S (GEOSCAN-EDELVEIS)
1 53385U 22096R   22344.34557990  .00016326  00000+0  59170-3 0  9992
2 53385  97.4282 245.2058 0005985  31.4825  36.7896 15.28427315 18808
RS33S (SXC3-215 VIZARD) 
1 53386U 22096S   22344.44749063  .00019411  00000+0  68497-3 0  9998
2 53386  97.4280 245.3956 0006939  29.6664  90.9772 15.29259679 18818
